STARLINK-36388          
1 68037U 26040Y   26076.25002315 -.01547672  00000+0 -71401-2 0  9993
2 68037  97.2763  25.0727 0001285 101.5524 324.5099 15.86123907  3598
STARLINK-36895          
1 68038U 26040Z   26076.25002315 -.01523643  00000+0 -69934-2 0  9994
2 68038  97.2732  25.0644 0001413 107.0594 305.5249 15.86184219  3649
STARLINK-36373          
1 68039U 26040AA  26076.25002315 -.01485697  00000+0 -69396-2 0  9993
2 68039  97.2730  25.0628 0001377 101.6194 306.3114 15.86235435  3596
STARLINK-36711          
1 68040U 26041A   26076.25002315 -.00032344  00000+0 -20767-3 0  9992
2 68040  53.1597  24.3572 0001472  53.4080 270.5128 15.75232880  3590
STARLINK-36825          
1 68041U 26041B   26076.18288822  .00225067  00000+0  11104-2 0  9992
2 68041  53.1594  24.5706 0001386 106.5929 253.5246 15.80950142  2400
STARLINK-36925          
1 68042U 26041C   26076.25002315 -.00050131  00000+0 -32467-3 0  9998
2 68042  53.1597  24.3601 0001176  68.9577 253.0984 15.75247392  3598
STARLINK-36902          
1 68043U 26041D   26076.18213753  .00225557  00000+0  11132-2 0  9990
2 68043  53.1595  24.5670 0001182  66.5350 293.5797 15.80942271  2409
STARLINK-36966          
1 68044U 26041E   26076.25002315 -.00081919  00000+0 -53488-3 0  9994
2 68044  53.1598  24.3075 0001326  83.8639 263.9409 15.75260456  3596
STARLINK-36864          
1 68045U 26041F   26076.25002315 -.00062018  00000+0 -40313-3 0  9997
2 68045  53.1598  24.3038 0001140  85.3413 264.3280 15.75252321  3591
STARLINK-36321          
1 68046U 26041G   26076.17913634  .00188313  00000+0  93444-3 0  9992
2 68046  53.1594  24.5467 0000954  92.5024 267.6108 15.80931505  2404
STARLINK-36181          
1 68047U 26041H   26076.17988715  .00222526  00000+0  10986-2 0  9999
2 68047  53.1595  24.5514 0001309 107.0463 253.0703 15.80942722  2406
STARLINK-36318          
1 68048U 26041J   26076.25002315 -.00040442  00000+0 -26091-3 0  9994
2 68048  53.1600  24.2545 0001134  88.7568 284.8035 15.75238907  3590
STARLINK-36885          
1 68049U 26041K   26076.25002315 -.00057708  00000+0 -37449-3 0  9997
2 68049  53.1600  24.2505 0001188  98.0958 277.3222 15.75260561  3599
STARLINK-36945          
1 68050U 26041L   26076.24085490  .00276117  00000+0  13521-2 0  9992
2 68050  53.1596  24.2196 0001268 105.8917 254.2246 15.80970983  2414
STARLINK-35911          
1 68051U 26041M   26076.23935516  .00254427  00000+0  12498-2 0  9997
2 68051  53.1597  24.2100 0001418  59.5914 300.5248 15.80963608  2413
STARLINK-35808          
1 68052U 26041N   26076.23860460  .00127159  00000+0  63702-3 0  9999
2 68052  53.1597  24.2038 0001326 103.7859 256.3312 15.80918144  2417
