[{"OBJECT_NAME":"STARLINK-36388","OBJECT_ID":"2026-040Y","EPOCH":"2026-03-17T06:00:02.000160","MEAN_MOTION":15.86123907,"ECCENTRICITY":0.00012855,"INCLINATION":97.2763,"RA_OF_ASC_NODE":25.0727,"ARG_OF_PERICENTER":101.5524,"MEAN_ANOMALY":324.5099,"EPHEMERIS_TYPE":0,"CLASSIFICATION_TYPE":"U","NORAD_CAT_ID":68037,"ELEMENT_SET_NO":999,"REV_AT_EPOCH":359,"BSTAR":-0.0071400986,"MEAN_MOTION_DOT":-0.01547672,"MEAN_MOTION_DDOT":0},{"OBJECT_NAME":"STARLINK-36895","OBJECT_ID":"2026-040Z","EPOCH":"2026-03-17T06:00:02.000160","MEAN_MOTION":15.86184219,"ECCENTRICITY":0.00014135,"INCLINATION":97.2732,"RA_OF_ASC_NODE":25.0644,"ARG_OF_PERICENTER":107.0594,"MEAN_ANOMALY":305.5249,"EPHEMERIS_TYPE":0,"CLASSIFICATION_TYPE":"U","NORAD_CAT_ID":68038,"ELEMENT_SET_NO":999,"REV_AT_EPOCH":364,"BSTAR":-0.0069934456,"MEAN_MOTION_DOT":-0.01523643,"MEAN_MOTION_DDOT":0},{"OBJECT_NAME":"STARLINK-36373","OBJECT_ID":"2026-040AA","EPOCH":"2026-03-17T06:00:02.000160","MEAN_MOTION":15.86235435,"ECCENTRICITY":0.00013774,"INCLINATION":97.273,"RA_OF_ASC_NODE":25.0628,"ARG_OF_PERICENTER":101.6194,"MEAN_ANOMALY":306.3114,"EPHEMERIS_TYPE":0,"CLASSIFICATION_TYPE":"U","NORAD_CAT_ID":68039,"ELEMENT_SET_NO":999,"REV_AT_EPOCH":359,"BSTAR":-0.0069396251,"MEAN_MOTION_DOT":-0.01485697,"MEAN_MOTION_DDOT":0},{"OBJECT_NAME":"STARLINK-36711","OBJECT_ID":"2026-041A","EPOCH":"2026-03-17T06:00:02.000160","MEAN_MOTION":15.7523288,"ECCENTRICITY":0.00014725,"INCLINATION":53.1597,"RA_OF_ASC_NODE":24.3572,"ARG_OF_PERICENTER":53.408,"MEAN_ANOMALY":270.5128,"EPHEMERIS_TYPE":0,"CLASSIFICATION_TYPE":"U","NORAD_CAT_ID":68040,"ELEMENT_SET_NO":999,"REV_AT_EPOCH":359,"BSTAR":-0.00020767448,"MEAN_MOTION_DOT":-0.00032344,"MEAN_MOTION_DDOT":0},{"OBJECT_NAME":"STARLINK-36825","OBJECT_ID":"2026-041B","EPOCH":"2026-03-17T04:23:21.542208","MEAN_MOTION":15.80950142,"ECCENTRICITY":0.00013869,"INCLINATION":53.1594,"RA_OF_ASC_NODE":24.5706,"ARG_OF_PERICENTER":106.5929,"MEAN_ANOMALY":253.5246,"EPHEMERIS_TYPE":0,"CLASSIFICATION_TYPE":"U","NORAD_CAT_ID":68041,"ELEMENT_SET_NO":999,"REV_AT_EPOCH":240,"BSTAR":0.0011104209,"MEAN_MOTION_DOT":0.00225067,"MEAN_MOTION_DDOT":0},{"OBJECT_NAME":"STARLINK-36925","OBJECT_ID":"2026-041C","EPOCH":"2026-03-17T06:00:02.000160","MEAN_MOTION":15.75247392,"ECCENTRICITY":0.00011761,"INCLINATION":53.1597,"RA_OF_ASC_NODE":24.3601,"ARG_OF_PERICENTER":68.9577,"MEAN_ANOMALY":253.0984,"EPHEMERIS_TYPE":0,"CLASSIFICATION_TYPE":"U","NORAD_CAT_ID":68042,"ELEMENT_SET_NO":999,"REV_AT_EPOCH":359,"BSTAR":-0.00032467014,"MEAN_MOTION_DOT":-0.00050131,"MEAN_MOTION_DDOT":0},{"OBJECT_NAME":"STARLINK-36902","OBJECT_ID":"2026-041D","EPOCH":"2026-03-17T04:22:16.682592","MEAN_MOTION":15.80942271,"ECCENTRICITY":0.00011829,"INCLINATION":53.1595,"RA_OF_ASC_NODE":24.567,"ARG_OF_PERICENTER":66.535,"MEAN_ANOMALY":293.5797,"EPHEMERIS_TYPE":0,"CLASSIFICATION_TYPE":"U","NORAD_CAT_ID":68043,"ELEMENT_SET_NO":999,"REV_AT_EPOCH":240,"BSTAR":0.0011131695,"MEAN_MOTION_DOT":0.00225557,"MEAN_MOTION_DDOT":0},{"OBJECT_NAME":"STARLINK-36966","OBJECT_ID":"2026-041E","EPOCH":"2026-03-17T06:00:02.000160","MEAN_MOTION":15.75260456,"ECCENTRICITY":0.0001326,"INCLINATION":53.1598,"RA_OF_ASC_NODE":24.3075,"ARG_OF_PERICENTER":83.8639,"MEAN_ANOMALY":263.9409,"EPHEMERIS_TYPE":0,"CLASSIFICATION_TYPE":"U","NORAD_CAT_ID":68044,"ELEMENT_SET_NO":999,"REV_AT_EPOCH":359,"BSTAR":-0.00053488277,"MEAN_MOTION_DOT":-0.00081919,"MEAN_MOTION_DDOT":0},{"OBJECT_NAME":"STARLINK-36864","OBJECT_ID":"2026-041F","EPOCH":"2026-03-17T06:00:02.000160","MEAN_MOTION":15.75252321,"ECCENTRICITY":0.00011401,"INCLINATION":53.1598,"RA_OF_ASC_NODE":24.3038,"ARG_OF_PERICENTER":85.3413,"MEAN_ANOMALY":264.328,"EPHEMERIS_TYPE":0,"CLASSIFICATION_TYPE":"U","NORAD_CAT_ID":68045,"ELEMENT_SET_NO":999,"REV_AT_EPOCH":359,"BSTAR":-0.00040312926,"MEAN_MOTION_DOT":-0.00062018,"MEAN_MOTION_DDOT":0},{"OBJECT_NAME":"STARLINK-36321","OBJECT_ID":"2026-041G","EPOCH":"2026-03-17T04:17:57.379776","MEAN_MOTION":15.80931505,"ECCENTRICITY":9.548e-5,"INCLINATION":53.1594,"RA_OF_ASC_NODE":24.5467,"ARG_OF_PERICENTER":92.5024,"MEAN_ANOMALY":267.6108,"EPHEMERIS_TYPE":0,"CLASSIFICATION_TYPE":"U","NORAD_CAT_ID":68046,"ELEMENT_SET_NO":999,"REV_AT_EPOCH":240,"BSTAR":0.00093444328,"MEAN_MOTION_DOT":0.00188313,"MEAN_MOTION_DDOT":0},{"OBJECT_NAME":"STARLINK-36181","OBJECT_ID":"2026-041H","EPOCH":"2026-03-17T04:19:02.249760","MEAN_MOTION":15.80942722,"ECCENTRICITY":0.00013096,"INCLINATION":53.1595,"RA_OF_ASC_NODE":24.5514,"ARG_OF_PERICENTER":107.0463,"MEAN_ANOMALY":253.0703,"EPHEMERIS_TYPE":0,"CLASSIFICATION_TYPE":"U","NORAD_CAT_ID":68047,"ELEMENT_SET_NO":999,"REV_AT_EPOCH":240,"BSTAR":0.001098623,"MEAN_MOTION_DOT":0.00222526,"MEAN_MOTION_DDOT":0},{"OBJECT_NAME":"STARLINK-36318","OBJECT_ID":"2026-041J","EPOCH":"2026-03-17T06:00:02.000160","MEAN_MOTION":15.75238907,"ECCENTRICITY":0.00011349,"INCLINATION":53.16,"RA_OF_ASC_NODE":24.2545,"ARG_OF_PERICENTER":88.7568,"MEAN_ANOMALY":284.8035,"EPHEMERIS_TYPE":0,"CLASSIFICATION_TYPE":"U","NORAD_CAT_ID":68048,"ELEMENT_SET_NO":999,"REV_AT_EPOCH":359,"BSTAR":-0.00026090927,"MEAN_MOTION_DOT":-0.00040442,"MEAN_MOTION_DDOT":0},{"OBJECT_NAME":"STARLINK-36885","OBJECT_ID":"2026-041K","EPOCH":"2026-03-17T06:00:02.000160","MEAN_MOTION":15.75260561,"ECCENTRICITY":0.00011884,"INCLINATION":53.16,"RA_OF_ASC_NODE":24.2505,"ARG_OF_PERICENTER":98.0958,"MEAN_ANOMALY":277.3222,"EPHEMERIS_TYPE":0,"CLASSIFICATION_TYPE":"U","NORAD_CAT_ID":68049,"ELEMENT_SET_NO":999,"REV_AT_EPOCH":359,"BSTAR":-0.00037449187,"MEAN_MOTION_DOT":-0.00057708,"MEAN_MOTION_DDOT":0},{"OBJECT_NAME":"STARLINK-36945","OBJECT_ID":"2026-041L","EPOCH":"2026-03-17T05:46:49.863360","MEAN_MOTION":15.80970983,"ECCENTRICITY":0.00012684,"INCLINATION":53.1596,"RA_OF_ASC_NODE":24.2196,"ARG_OF_PERICENTER":105.8917,"MEAN_ANOMALY":254.2246,"EPHEMERIS_TYPE":0,"CLASSIFICATION_TYPE":"U","NORAD_CAT_ID":68050,"ELEMENT_SET_NO":999,"REV_AT_EPOCH":241,"BSTAR":0.0013521149,"MEAN_MOTION_DOT":0.00276117,"MEAN_MOTION_DDOT":0},{"OBJECT_NAME":"STARLINK-35911","OBJECT_ID":"2026-041M","EPOCH":"2026-03-17T05:44:40.285824","MEAN_MOTION":15.80963608,"ECCENTRICITY":0.0001418,"INCLINATION":53.1597,"RA_OF_ASC_NODE":24.21,"ARG_OF_PERICENTER":59.5914,"MEAN_ANOMALY":300.5248,"EPHEMERIS_TYPE":0,"CLASSIFICATION_TYPE":"U","NORAD_CAT_ID":68051,"ELEMENT_SET_NO":999,"REV_AT_EPOCH":241,"BSTAR":0.0012497574,"MEAN_MOTION_DOT":0.00254427,"MEAN_MOTION_DDOT":0},{"OBJECT_NAME":"STARLINK-35808","OBJECT_ID":"2026-041N","EPOCH":"2026-03-17T05:43:35.437440","MEAN_MOTION":15.80918144,"ECCENTRICITY":0.00013266,"INCLINATION":53.1597,"RA_OF_ASC_NODE":24.2038,"ARG_OF_PERICENTER":103.7859,"MEAN_ANOMALY":256.3312,"EPHEMERIS_TYPE":0,"CLASSIFICATION_TYPE":"U","NORAD_CAT_ID":68052,"ELEMENT_SET_NO":999,"REV_AT_EPOCH":241,"BSTAR":0.00063701677,"MEAN_MOTION_DOT":0.00127159,"MEAN_MOTION_DDOT":0}]
